[{"OBJECT_NAME":"ASTROCAST-0403","OBJECT_ID":"2023-001DG","EPOCH":"2026-03-09T19:45:35.762976","MEAN_MOTION":15.28004949,"ECCENTRICITY":0.00047706,"INCLINATION":97.5604,"RA_OF_ASC_NODE":161.3228,"ARG_OF_PERICENTER":338.0704,"MEAN_ANOMALY":22.033,"EPHEMERIS_TYPE":0,"CLASSIFICATION_TYPE":"U","NORAD_CAT_ID":55111,"ELEMENT_SET_NO":999,"REV_AT_EPOCH":12937,"BSTAR":0.0005131719,"MEAN_MOTION_DOT":0.00013959,"MEAN_MOTION_DDOT":0},{"OBJECT_NAME":"STARLINK-31408","OBJECT_ID":"2024-049K","EPOCH":"2026-03-09T05:42:37.057824","MEAN_MOTION":15.27566294,"ECCENTRICITY":0.00010396,"INCLINATION":42.9985,"RA_OF_ASC_NODE":146.3745,"ARG_OF_PERICENTER":282.3363,"MEAN_ANOMALY":77.7372,"EPHEMERIS_TYPE":0,"CLASSIFICATION_TYPE":"U","NORAD_CAT_ID":59240,"ELEMENT_SET_NO":999,"REV_AT_EPOCH":11233,"BSTAR":-2.12307e-7,"MEAN_MOTION_DOT":-2.68e-6,"MEAN_MOTION_DDOT":0}]
