ASTROCAST-0403          
1 55111U 23001DG  26068.82333059  .00013959  00000+0  51317-3 0  9990
2 55111  97.5604 161.3228 0004771 338.0704  22.0330 15.28004949129377
STARLINK-31408          
1 59240U 24049K   26068.23792891 -.00000268  00000+0 -21231-6 0  9994
2 59240  42.9985 146.3745 0001039 282.3363  77.7372 15.27566294112339
